{
  "type": "FeatureCollection",
  "features": [
    {
      "type": "Feature",
      "properties": {
        "norad_id": 19071,
        "name": "OSCAR 32",
        "group": "nnss",
        "lat": 71.92960502911231,
        "lon": 15.471720807229714,
        "alt_km": 1171.418408916701,
        "timestamp": "2025-12-10T14:53:37.361544+00:00",
        "meta_object_name": "OSCAR 32",
        "meta_object_id": "1988-033B",
        "meta_epoch": "2025-12-10T04:02:11.577120",
        "meta_mean_motion": 13.27953499,
        "meta_eccentricity": 0.01881562,
        "meta_inclination": 90.3219,
        "meta_ra_of_asc_node": 16.4448,
        "meta_arg_of_pericenter": 173.9306,
        "meta_mean_anomaly": 258.7457,
        "meta_ephemeris_type": 0,
        "meta_classification_type": "U",
        "meta_norad_cat_id": 19071,
        "meta_element_set_no": 999,
        "meta_rev_at_epoch": 82231,
        "meta_bstar": 0.00017276505,
        "meta_mean_motion_dot": 9.5e-07,
        "meta_mean_motion_ddot": 0,
        "tle_line1": "1 19071U 88033B   25344.16818955  .00000095  00000+0  17277-3 0  9991",
        "tle_line2": "2 19071  90.3219  16.4448 0188156 173.9306 258.7457 13.27953499822315"
      },
      "geometry": {
        "type": "Point",
        "coordinates": [
          15.471720807229714,
          71.92960502911231
        ]
      }
    },
    {
      "type": "Feature",
      "properties": {
        "norad_id": 19223,
        "name": "NOVA 2",
        "group": "nnss",
        "lat": -50.869373824892875,
        "lon": 78.25919269311943,
        "alt_km": 1173.8002795438688,
        "timestamp": "2025-12-10T14:53:37.361554+00:00",
        "meta_object_name": "NOVA 2",
        "meta_object_id": "1988-052A",
        "meta_epoch": "2025-12-10T06:20:29.014944",
        "meta_mean_motion": 13.22935625,
        "meta_eccentricity": 0.00307992,
        "meta_inclination": 89.9871,
        "meta_ra_of_asc_node": 78.2755,
        "meta_arg_of_pericenter": 23.6334,
        "meta_mean_anomaly": 29.7699,
        "meta_ephemeris_type": 0,
        "meta_classification_type": "U",
        "meta_norad_cat_id": 19223,
        "meta_element_set_no": 999,
        "meta_rev_at_epoch": 80915,
        "meta_bstar": 0.00020088291,
        "meta_mean_motion_dot": 9.3e-07,
        "meta_mean_motion_ddot": 0,
        "tle_line1": "1 19223U 88052A   25344.26422471  .00000093  00000+0  20088-3 0  9998",
        "tle_line2": "2 19223  89.9871  78.2755 0030799  23.6334  29.7699 13.22935625809157"
      },
      "geometry": {
        "type": "Point",
        "coordinates": [
          78.25919269311943,
          -50.869373824892875
        ]
      }
    },
    {
      "type": "Feature",
      "properties": {
        "norad_id": 19419,
        "name": "OSCAR 25",
        "group": "nnss",
        "lat": -55.51384330666614,
        "lon": -159.81345746699213,
        "alt_km": 1038.9557337330052,
        "timestamp": "2025-12-10T14:53:37.361563+00:00",
        "meta_object_name": "OSCAR 25",
        "meta_object_id": "1988-074A",
        "meta_epoch": "2025-12-10T03:17:45.154752",
        "meta_mean_motion": 13.42622609,
        "meta_eccentricity": 0.00943467,
        "meta_inclination": 90.0349,
        "meta_ra_of_asc_node": 20.2357,
        "meta_arg_of_pericenter": 253.3967,
        "meta_mean_anomaly": 168.0048,
        "meta_ephemeris_type": 0,
        "meta_classification_type": "U",
        "meta_norad_cat_id": 19419,
        "meta_element_set_no": 999,
        "meta_rev_at_epoch": 82605,
        "meta_bstar": 0.00020993943,
        "meta_mean_motion_dot": 1.3e-06,
        "meta_mean_motion_ddot": 0,
        "tle_line1": "1 19419U 88074A   25344.13732818  .00000130  00000+0  20994-3 0  9992",
        "tle_line2": "2 19419  90.0349  20.2357 0094346 253.3967 168.0048 13.42622609826054"
      },
      "geometry": {
        "type": "Point",
        "coordinates": [
          -159.81345746699213,
          -55.51384330666614
        ]
      }
    },
    {
      "type": "Feature",
      "properties": {
        "norad_id": 19420,
        "name": "OSCAR 31",
        "group": "nnss",
        "lat": 60.98357935703056,
        "lon": -159.34700619128913,
        "alt_km": 1135.2453258275564,
        "timestamp": "2025-12-10T14:53:37.361573+00:00",
        "meta_object_name": "OSCAR 31",
        "meta_object_id": "1988-074B",
        "meta_epoch": "2025-12-10T03:52:58.446048",
        "meta_mean_motion": 13.42584001,
        "meta_eccentricity": 0.00926262,
        "meta_inclination": 90.0366,
        "meta_ra_of_asc_node": 20.5853,
        "meta_arg_of_pericenter": 247.4219,
        "meta_mean_anomaly": 176.2622,
        "meta_ephemeris_type": 0,
        "meta_classification_type": "U",
        "meta_norad_cat_id": 19420,
        "meta_element_set_no": 999,
        "meta_rev_at_epoch": 82616,
        "meta_bstar": 0.00017401837,
        "meta_mean_motion_dot": 1.09e-06,
        "meta_mean_motion_ddot": 0,
        "tle_line1": "1 19420U 88074B   25344.16178757  .00000109  00000+0  17402-3 0  9999",
        "tle_line2": "2 19420  90.0366  20.5853 0092626 247.4219 176.2622 13.42584001826166"
      },
      "geometry": {
        "type": "Point",
        "coordinates": [
          -159.34700619128913,
          60.98357935703056
        ]
      }
    }
  ]
}